IRIDIUM 36              
1 24967U 97056C   25005.39829490  .00001244  00000+0  41042-3 0  9995
2 24967  86.3955 241.3368 0001953  90.2984 269.8437 14.37338334428836
IRIDIUM 39              
1 25042U 97069D   25005.50259118  .00001782  00000+0  46575-3 0  9994
2 25042  86.3909 280.8904 0019663 125.3644 234.9401 14.48801555425400
IRIDIUM 38              
1 25043U 97069E   25005.40864925  .00001606  00000+0  52650-3 0  9998
2 25043  86.3965 301.6644 0000470  44.3485 315.7750 14.37840184422563
IRIDIUM 42              
1 25077U 97077A   25005.28577952  .00001483  00000+0  50302-3 0  9996
2 25077  86.3972 307.6862 0001599  72.6837 287.4534 14.36096555417815
IRIDIUM 44              
1 25078U 97077B   25005.26200070  .00001449  00000+0  45459-3 0  9998
2 25078  86.3960 290.0448 0002033 135.2893 224.8470 14.39965481420252
IRIDIUM 45              
1 25104U 97082A   25005.28844535  .00039623  00000+0  17285-2 0  9996
2 25104  86.3635 126.5190 0133746 218.3038 140.8647 15.14176258427326
IRIDIUM 24              
1 25105U 97082B   25005.51289106  .00001554  00000+0  46996-3 0  9994
2 25105  86.3936 149.2687 0009527 252.6145 107.4013 14.41793557419775
IRIDIUM 51              
1 25262U 98018A   25005.56911608  .00050949  00000+0  16207-2 0  9995
2 25262  86.3913 135.4922 0112091 149.0763 211.7150 15.26395066422119
